NORAD_CAT_ID,OBJECT_NAME,OBJECT_TYPE,EPOCH,MEAN_MOTION,ECCENTRICITY,INCLINATION,RA_OF_ASC_NODE,ARG_OF_PERICENTER,MEAN_ANOMALY,BSTAR,MEAN_MOTION_DOT,MEAN_MOTION_DDOT,TLE_LINE0,TLE_LINE1,TLE_LINE2,SEMIMAJOR_AXIS,PERIOD,APOGEE,PERIGEE,DECAYED
52843.0,STARLINK-4188,PAYLOAD,2024-01-25 20:06:35,15.08837699,0.0001117,53.2159,268.0799,89.4497,270.6623,-6.9529e-05,-1.394e-05,0.0,0 STARLINK-4188,1 52843U 22062P   24025.83791614 -.00001394  00000-0 -69529-4 0  9990,2 52843  53.2159 268.0799 0001117  89.4497 270.6623 15.08837699 89459,6917.887,95.438,540.525,538.98,0.0
52843.0,STARLINK-4188,PAYLOAD,2024-01-25 21:41:59,15.08838569,0.0001108,53.2154,267.7834,84.0187,276.0931,-4.9456e-05,-1.075e-05,0.0,0 STARLINK-4188,1 52843U 22062P   24025.90415568 -.00001075  00000-0 -49456-4 0  9992,2 52843  53.2154 267.7834 0001108  84.0187 276.0931 15.08838569 88972,6917.885,95.438,540.516,538.983,0.0
52843.0,STARLINK-4188,PAYLOAD,2024-01-25 23:17:22,15.08825442,0.0001371,53.216,267.4825,103.3175,256.7971,0.00046082,7.051e-05,0.0,0 STARLINK-4188,1 52843U 22062P   24025.97040211  .00007051  00000-0  46082-3 0  9997,2 52843  53.2160 267.4825 0001371 103.3175 256.7971 15.08825442 89471,6917.925,95.438,540.738,538.841,0.0
52843.0,STARLINK-4188,PAYLOAD,2024-01-26 23:08:08,15.08848118,0.0001225,53.2156,263.0237,82.4702,277.6429,0.00031086,4.664e-05,0.0,0 STARLINK-4188,1 52843U 22062P   24026.96399146  .00004664  00000-0  31086-3 0  9996,2 52843  53.2156 263.0237 0001225  82.4702 277.6429 15.08848118 89628,6917.856,95.437,540.568,538.873,0.0
52843.0,STARLINK-4188,PAYLOAD,2024-01-27 19:48:09,15.08844637,0.0001248,53.2157,259.1573,80.4401,279.6732,8.1828e-05,1.015e-05,0.0,0 STARLINK-4188,1 52843U 22062P   24027.82511246  .00001015  00000-0  81828-4 0  9996,2 52843  53.2157 259.1573 0001248  80.4401 279.6732 15.08844637 89752,6917.866,95.437,540.595,538.868,0.0
52843.0,STARLINK-4188,PAYLOAD,2024-01-27 21:23:32,15.08843711,0.0001253,53.2156,258.8599,80.2194,279.894,5.593e-05,6.02e-06,0.0,0 STARLINK-4188,1 52843U 22062P   24027.89135206  .00000602  00000-0  55930-4 0  9997,2 52843  53.2156 258.8599 0001253  80.2194 279.8940 15.08843711 89270,6917.869,95.437,540.601,538.867,0.0
52843.0,STARLINK-4188,PAYLOAD,2024-01-28 00:34:19,15.08843742,0.000126,53.2156,258.2655,77.9625,282.1509,5.0854e-05,5.22e-06,0.0,0 STARLINK-4188,1 52843U 22062P   24028.02383181  .00000522  00000-0  50854-4 0  9991,2 52843  53.2156 258.2655 0001260  77.9625 282.1509 15.08843742 89291,6917.869,95.437,540.606,538.862,0.0
52843.0,STARLINK-4188,PAYLOAD,2024-01-28 19:38:57,15.08838138,0.0001534,53.216,254.6934,66.3423,293.773,1.3954e-05,-6.6e-07,0.0,0 STARLINK-4188,1 52843U 22062P   24028.81871591 -.00000066  00000-0  13954-4 0  9999,2 52843  53.2160 254.6934 0001534  66.3423 293.7730 15.08838138 89903,6917.886,95.438,540.812,538.69,0.0
52843.0,STARLINK-4188,PAYLOAD,2024-01-28 21:14:20,15.08840394,0.0001537,53.2171,254.3956,66.1538,293.9615,3.7447e-05,3.08e-06,0.0,0 STARLINK-4188,1 52843U 22062P   24028.88495698  .00000308  00000-0  37447-4 0  9997,2 52843  53.2171 254.3956 0001537  66.1538 293.9615 15.08840394 89422,6917.879,95.438,540.807,538.681,0.0
52843.0,STARLINK-4188,PAYLOAD,2024-01-29 00:25:06,15.08841774,0.0001514,53.2171,253.7999,68.2322,291.8831,4.3791e-05,4.09e-06,0.0,0 STARLINK-4188,1 52843U 22062P   24029.01743547  .00000409  00000-0  43791-4 0  9993,2 52843  53.2171 253.7999 0001514  68.2322 291.8831 15.08841774 89443,6917.875,95.437,540.787,538.693,0.0
52843.0,STARLINK-4188,PAYLOAD,2024-01-30 00:15:50,15.08868296,0.0001188,53.2143,249.3545,61.7927,298.3185,0.00024422,3.604e-05,0.0,0 STARLINK-4188,1 52843U 22062P   24030.01100388  .00003604  00000-0  24422-3 0  9994,2 52843  53.2143 249.3545 0001188  61.7927 298.3185 15.08868296 90080,6917.794,95.436,540.481,538.837,0.0
52843.0,STARLINK-4188,PAYLOAD,2024-01-30 19:20:29,15.08837409,0.0001391,53.2152,245.7735,121.6788,238.434,-1.1897e-05,-4.77e-06,0.0,0 STARLINK-4188,1 52843U 22062P   24030.80590216 -.00000477  00000-0 -11897-4 0  9994,2 52843  53.2152 245.7735 0001391 121.6788 238.4340 15.08837409 90202,6917.888,95.438,540.716,538.791,0.0
52843.0,STARLINK-4188,PAYLOAD,2024-01-30 20:55:53,15.08836097,0.0001322,53.2159,245.4777,117.0318,243.0809,-3.7688e-05,-8.88e-06,0.0,0 STARLINK-4188,1 52843U 22062P   24030.87214338 -.00000888  00000-0 -37688-4 0  9991,2 52843  53.2159 245.4777 0001322 117.0318 243.0809 15.08836097 89723,6917.892,95.438,540.672,538.843,0.0
52843.0,STARLINK-4188,PAYLOAD,2024-01-31 00:06:40,15.08828864,0.00014,53.2166,244.8813,93.012,267.1032,-7.9851e-05,-1.558e-05,0.0,0 STARLINK-4188,1 52843U 22062P   24031.00463179 -.00001558  00000-0 -79851-4 0  9999,2 52843  53.2166 244.8813 0001400  93.0120 267.1032 15.08828864 90232,6917.914,95.438,540.748,538.811,0.0
52843.0,STARLINK-4188,PAYLOAD,2024-02-01 14:15:56,15.08819204,0.0001616,53.2167,237.7462,108.1447,251.9721,9.1599e-05,1.169e-05,0.0,0 STARLINK-4188,1 52843U 22062P   24032.59440046  .00001169  00000-0  91599-4 0  9991,2 52843  53.2167 237.7462 0001616 108.1447 251.9721 15.08819204 89987,6917.944,95.439,540.927,538.691,0.0
52843.0,STARLINK-4188,PAYLOAD,2024-02-02 18:52:52,15.08836334,0.0001556,53.2168,232.3914,100.5369,259.5798,2.1017e-05,4.6e-07,0.0,0 STARLINK-4188,1 52843U 22062P   24033.78672007  .00000046  00000-0  21017-4 0  9998,2 52843  53.2168 232.3914 0001556 100.5369 259.5798 15.08836334 90650,6917.892,95.438,540.833,538.68,0.0
52843.0,STARLINK-4188,PAYLOAD,2024-02-02 22:03:39,15.08833499,0.0001531,53.2172,231.7976,96.0431,264.0736,0.00010579,1.396e-05,0.0,0 STARLINK-4188,1 52843U 22062P   24033.91920488  .00001396  00000-0  10579-3 0  9991,2 52843  53.2172 231.7976 0001531  96.0431 264.0736 15.08833499 90188,6917.9,95.438,540.824,538.706,0.0
52843.0,STARLINK-4188,PAYLOAD,2024-02-02 23:39:02,15.08833309,0.0001546,53.2172,231.5013,96.442,263.6749,0.00010879,1.444e-05,0.0,0 STARLINK-4188,1 52843U 22062P   24033.98544525  .00001444  00000-0  10879-3 0  9999,2 52843  53.2172 231.5013 0001546  96.4420 263.6749 15.08833309 90196,6917.901,95.438,540.835,538.696,0.0
52843.0,STARLINK-4188,PAYLOAD,2024-02-03 20:19:02,15.08842474,0.000138,53.2163,227.6363,101.7452,258.3695,0.00010578,1.396e-05,0.0,0 STARLINK-4188,1 52843U 22062P   24034.84656056  .00001396  00000-0  10578-3 0  9990,2 52843  53.2163 227.6363 0001380 101.7452 258.3695 15.08842474 90814,6917.873,95.437,540.692,538.783,0.0
52843.0,STARLINK-4188,PAYLOAD,2024-02-04 12:12:54,15.08843652,0.0001292,53.2157,224.6633,106.9939,253.1195,2.4432e-05,1.01e-06,0.0,0 STARLINK-4188,1 52843U 22062P   24035.50896244  .00000101  00000-0  24432-4 0  9997,2 52843  53.2157 224.6633 0001292 106.9939 253.1195 15.08843652 90427,6917.869,95.437,540.628,538.84,0.0
52843.0,STARLINK-4188,PAYLOAD,2024-02-04 20:09:50,15.08843522,0.0001326,53.2162,223.1761,99.3046,260.8096,2.4358e-05,1e-06,0.0,0 STARLINK-4188,1 52843U 22062P   24035.84016247  .00000100  00000-0  24358-4 0  9997,2 52843  53.2162 223.1761 0001326  99.3046 260.8096 15.08843522 90477,6917.87,95.437,540.652,538.817,0.0
52843.0,STARLINK-4188,PAYLOAD,2024-02-05 12:03:41,15.08841774,0.0001469,53.2167,220.2033,83.8294,276.2866,-5.7643e-06,-3.8e-06,0.0,0 STARLINK-4188,1 52843U 22062P   24036.50256439 -.00000380  00000-0 -57643-5 0  9996,2 52843  53.2167 220.2033 0001469  83.8294 276.2866 15.08841774 91062,6917.875,95.437,540.756,538.724,0.0
52843.0,STARLINK-4188,PAYLOAD,2024-02-05 18:25:07,15.08921291,9.94e-05,53.2167,219.0131,102.439,257.6713,0.00070566,0.00010985,0.0,0 STARLINK-4188,1 52843U 22062P   24036.76745341  .00010985  00000-0  70566-3 0  9996,2 52843  53.2167 219.0131 0000994 102.4390 257.6713 15.08921291 91106,6917.632,95.432,540.185,538.809,0.0
52843.0,STARLINK-4188,PAYLOAD,2024-02-06 02:22:09,15.08840097,0.0001345,53.2166,217.5256,82.507,277.6075,-3.0657e-05,-7.76e-06,0.0,0 STARLINK-4188,1 52843U 22062P   24037.09872403 -.00000776  00000-0 -30657-4 0  9990,2 52843  53.2166 217.5256 0001345  82.5070 277.6075 15.08840097 91152,6917.88,95.438,540.676,538.815,0.0
52843.0,STARLINK-4188,PAYLOAD,2024-02-06 11:54:28,15.08840993,0.0001214,53.2166,215.7424,87.7005,272.4126,3.8555e-05,3.26e-06,0.0,0 STARLINK-4188,1 52843U 22062P   24037.49616135  .00000326  00000-0  38555-4 0  9996,2 52843  53.2166 215.7424 0001214  87.7005 272.4126 15.08840993 90726,6917.877,95.437,540.582,538.903,0.0
52843.0,STARLINK-4188,PAYLOAD,2024-02-06 18:16:00,15.08845273,0.0001299,53.2161,214.5531,80.4576,279.6563,7.2926e-05,8.73e-06,0.0,0 STARLINK-4188,1 52843U 22062P   24037.76111723  .00000873  00000-0  72926-4 0  9996,2 52843  53.2161 214.5531 0001299  80.4576 279.6563 15.08845273 91252,6917.864,95.437,540.628,538.831,0.0
52843.0,STARLINK-4188,PAYLOAD,2024-02-07 14:56:01,15.08837284,0.0001318,53.2169,210.688,93.2724,266.8419,5.5061e-05,5.88e-06,0.0,0 STARLINK-4188,1 52843U 22062P   24038.62224197  .00000588  00000-0  55061-4 0  9996,2 52843  53.2169 210.6880 0001318  93.2724 266.8419 15.08837284 90893,6917.889,95.438,540.665,538.842,0.0
52843.0,STARLINK-4188,PAYLOAD,2024-02-07 18:06:47,15.08838094,0.0001151,53.2167,210.0917,92.5259,267.5865,7.1579e-05,8.51e-06,0.0,0 STARLINK-4188,1 52843U 22062P   24038.75472105  .00000851  00000-0  71579-4 0  9999,2 52843  53.2167 210.0917 0001151  92.5259 267.5865 15.08838094 91407,6917.886,95.438,540.547,538.955,0.0
52843.0,STARLINK-4188,PAYLOAD,2024-02-07 21:17:33,15.08852606,8.05e-05,53.2159,209.4964,77.1623,282.9459,-0.00011132,-2.06e-05,0.0,0 STARLINK-4188,1 52843U 22062P   24038.88719600 -.00002060  00000-0 -11132-3 0  9991,2 52843  53.2159 209.4964 0000805  77.1623 282.9459 15.08852606 90933,6917.842,95.437,540.264,539.15,0.0
52843.0,STARLINK-4188,PAYLOAD,2024-02-08 11:36:03,15.088302,0.0001263,53.2164,206.8165,89.3066,270.807,-1.0495e-05,-4.55e-06,0.0,0 STARLINK-4188,1 52843U 22062P   24039.48337050 -.00000455  00000-0 -10495-4 0  9991,2 52843  53.2164 206.8165 0001263  89.3066 270.8070 15.08830200 91514,6917.91,95.438,540.649,538.902,0.0
